CCSDS_OMM_VERS = 2.0
CREATION_DATE  = 
ORIGINATOR     = 

OBJECT_NAME    = UNKNOWN
OBJECT_ID      = 
CENTER_NAME    = EARTH
REF_FRAME      = TEME
TIME_SYSTEM    = UTC
MEAN_ELEMENT_THEORY = SGP/SGP4

EPOCH          = 2025-12-25T03:41:41.409600
MEAN_MOTION    = 14.15477713
ECCENTRICITY   = .0081655
INCLINATION    = 99.0232
RA_OF_ASC_NODE = 67.1786
ARG_OF_PERICENTER = 8.1010
MEAN_ANOMALY   = 352.1461

EPHEMERIS_TYPE = 0
CLASSIFICATION_TYPE = U
NORAD_CAT_ID   = 82139
ELEMENT_SET_NO = 999
REV_AT_EPOCH   = 48187
BSTAR          = .11379E-2
MEAN_MOTION_DOT = .225E-4
MEAN_MOTION_DDOT = 0

CCSDS_OMM_VERS = 2.0
CREATION_DATE  = 
ORIGINATOR     = 

OBJECT_NAME    = UNKNOWN
OBJECT_ID      = 
CENTER_NAME    = EARTH
REF_FRAME      = TEME
TIME_SYSTEM    = UTC
MEAN_ELEMENT_THEORY = SGP/SGP4

EPOCH          = 2025-12-28T05:56:05.063712
MEAN_MOTION    = 13.53683980
ECCENTRICITY   = .004376
INCLINATION    = 100.4762
RA_OF_ASC_NODE = 287.6309
ARG_OF_PERICENTER = 198.8025
MEAN_ANOMALY   = 161.1494

EPHEMERIS_TYPE = 0
CLASSIFICATION_TYPE = U
NORAD_CAT_ID   = 82162
ELEMENT_SET_NO = 999
REV_AT_EPOCH   = 50640
BSTAR          = .73112E-2
MEAN_MOTION_DOT = .4913E-4
MEAN_MOTION_DDOT = 0

CCSDS_OMM_VERS = 2.0
CREATION_DATE  = 
ORIGINATOR     = 

OBJECT_NAME    = UNKNOWN
OBJECT_ID      = 
CENTER_NAME    = EARTH
REF_FRAME      = TEME
TIME_SYSTEM    = UTC
MEAN_ELEMENT_THEORY = SGP/SGP4

EPOCH          = 2025-12-29T01:51:49.539744
MEAN_MOTION    = 14.51836807
ECCENTRICITY   = .0315057
INCLINATION    = 65.6534
RA_OF_ASC_NODE = 242.1858
ARG_OF_PERICENTER = 208.9039
MEAN_ANOMALY   = 149.4296

EPHEMERIS_TYPE = 0
CLASSIFICATION_TYPE = U
NORAD_CAT_ID   = 82180
ELEMENT_SET_NO = 999
REV_AT_EPOCH   = 60412
BSTAR          = .23953E-2
MEAN_MOTION_DOT = .18521E-3
MEAN_MOTION_DDOT = 0

CCSDS_OMM_VERS = 2.0
CREATION_DATE  = 
ORIGINATOR     = 

OBJECT_NAME    = UNKNOWN
OBJECT_ID      = 
CENTER_NAME    = EARTH
REF_FRAME      = TEME
TIME_SYSTEM    = UTC
MEAN_ELEMENT_THEORY = SGP/SGP4

EPOCH          = 2025-12-27T18:31:29.192160
MEAN_MOTION    = 14.35220858
ECCENTRICITY   = .0017076
INCLINATION    = 74.0352
RA_OF_ASC_NODE = 20.7542
ARG_OF_PERICENTER = 212.8110
MEAN_ANOMALY   = 147.1984

EPHEMERIS_TYPE = 0
CLASSIFICATION_TYPE = U
NORAD_CAT_ID   = 82189
ELEMENT_SET_NO = 999
REV_AT_EPOCH   = 63457
BSTAR          = .13639E-3
MEAN_MOTION_DOT = .365E-5
MEAN_MOTION_DDOT = 0

CCSDS_OMM_VERS = 2.0
CREATION_DATE  = 
ORIGINATOR     = 

OBJECT_NAME    = UNKNOWN
OBJECT_ID      = 
CENTER_NAME    = EARTH
REF_FRAME      = TEME
TIME_SYSTEM    = UTC
MEAN_ELEMENT_THEORY = SGP/SGP4

EPOCH          = 2025-12-30T09:28:19.411968
MEAN_MOTION    = 13.85797979
ECCENTRICITY   = .0037806
INCLINATION    = 82.9654
RA_OF_ASC_NODE = 220.6093
ARG_OF_PERICENTER = 347.0646
MEAN_ANOMALY   = 191.6860

EPHEMERIS_TYPE = 0
CLASSIFICATION_TYPE = U
NORAD_CAT_ID   = 82199
ELEMENT_SET_NO = 999
REV_AT_EPOCH   = 61213
BSTAR          = .63205E-3
MEAN_MOTION_DOT = .743E-5
MEAN_MOTION_DDOT = 0

CCSDS_OMM_VERS = 2.0
CREATION_DATE  = 
ORIGINATOR     = 

OBJECT_NAME    = UNKNOWN
OBJECT_ID      = 
CENTER_NAME    = EARTH
REF_FRAME      = TEME
TIME_SYSTEM    = UTC
MEAN_ELEMENT_THEORY = SGP/SGP4

EPOCH          = 2025-12-31T13:04:57.014112
MEAN_MOTION    = 13.93430238
ECCENTRICITY   = .0494386
INCLINATION    = 63.0069
RA_OF_ASC_NODE = 191.9885
ARG_OF_PERICENTER = 294.9409
MEAN_ANOMALY   = 60.1043

EPHEMERIS_TYPE = 0
CLASSIFICATION_TYPE = U
NORAD_CAT_ID   = 82205
ELEMENT_SET_NO = 999
REV_AT_EPOCH   = 61062
BSTAR          = .10353E-2
MEAN_MOTION_DOT = .3653E-4
MEAN_MOTION_DDOT = 0

CCSDS_OMM_VERS = 2.0
CREATION_DATE  = 
ORIGINATOR     = 

OBJECT_NAME    = UNKNOWN
OBJECT_ID      = 
CENTER_NAME    = EARTH
REF_FRAME      = TEME
TIME_SYSTEM    = UTC
MEAN_ELEMENT_THEORY = SGP/SGP4

EPOCH          = 2025-12-29T22:04:45.288768
MEAN_MOTION    = 14.11928216
ECCENTRICITY   = .0069125
INCLINATION    = 99.3201
RA_OF_ASC_NODE = 250.5449
ARG_OF_PERICENTER = 298.6502
MEAN_ANOMALY   = 60.7728

EPHEMERIS_TYPE = 0
CLASSIFICATION_TYPE = U
NORAD_CAT_ID   = 82223
ELEMENT_SET_NO = 999
REV_AT_EPOCH   = 45121
BSTAR          = .21293E-2
MEAN_MOTION_DOT = .3934E-4
MEAN_MOTION_DDOT = 0

CCSDS_OMM_VERS = 2.0
CREATION_DATE  = 
ORIGINATOR     = 

OBJECT_NAME    = UNKNOWN
OBJECT_ID      = 
CENTER_NAME    = EARTH
REF_FRAME      = TEME
TIME_SYSTEM    = UTC
MEAN_ELEMENT_THEORY = SGP/SGP4

EPOCH          = 2026-01-01T13:22:37.154208
MEAN_MOTION    = 14.13942741
ECCENTRICITY   = .0070176
INCLINATION    = 98.9091
RA_OF_ASC_NODE = 271.9498
ARG_OF_PERICENTER = 134.3116
MEAN_ANOMALY   = 349.1743

EPHEMERIS_TYPE = 0
CLASSIFICATION_TYPE = U
NORAD_CAT_ID   = 82250
ELEMENT_SET_NO = 999
REV_AT_EPOCH   = 61943
BSTAR          = .30889E-2
MEAN_MOTION_DOT = .5962E-4
MEAN_MOTION_DDOT = 0

CCSDS_OMM_VERS = 2.0
CREATION_DATE  = 
ORIGINATOR     = 

OBJECT_NAME    = UNKNOWN
OBJECT_ID      = 
CENTER_NAME    = EARTH
REF_FRAME      = TEME
TIME_SYSTEM    = UTC
MEAN_ELEMENT_THEORY = SGP/SGP4

EPOCH          = 2025-12-28T22:16:16.493952
MEAN_MOTION    = 12.33569308
ECCENTRICITY   = .0753072
INCLINATION    = 67.5222
RA_OF_ASC_NODE = 171.4173
ARG_OF_PERICENTER = 95.9674
MEAN_ANOMALY   = 272.7596

EPHEMERIS_TYPE = 0
CLASSIFICATION_TYPE = U
NORAD_CAT_ID   = 82272
ELEMENT_SET_NO = 999
REV_AT_EPOCH   = 27393
BSTAR          = .1708E-2
MEAN_MOTION_DOT = .505E-5
MEAN_MOTION_DDOT = 0

CCSDS_OMM_VERS = 2.0
CREATION_DATE  = 
ORIGINATOR     = 

OBJECT_NAME    = UNKNOWN
OBJECT_ID      = 
CENTER_NAME    = EARTH
REF_FRAME      = TEME
TIME_SYSTEM    = UTC
MEAN_ELEMENT_THEORY = SGP/SGP4

EPOCH          = 2025-12-12T17:24:53.740800
MEAN_MOTION    = 14.31337782
ECCENTRICITY   = .0127087
INCLINATION    = 66.6173
RA_OF_ASC_NODE = 148.2102
ARG_OF_PERICENTER = 223.3779
MEAN_ANOMALY   = 135.7264

EPHEMERIS_TYPE = 0
CLASSIFICATION_TYPE = U
NORAD_CAT_ID   = 82295
ELEMENT_SET_NO = 999
REV_AT_EPOCH   = 57972
BSTAR          = .98631E-3
MEAN_MOTION_DOT = .277E-4
MEAN_MOTION_DDOT = 0

CCSDS_OMM_VERS = 2.0
CREATION_DATE  = 
ORIGINATOR     = 

OBJECT_NAME    = UNKNOWN
OBJECT_ID      = 
CENTER_NAME    = EARTH
REF_FRAME      = TEME
TIME_SYSTEM    = UTC
MEAN_ELEMENT_THEORY = SGP/SGP4

EPOCH          = 2026-01-01T10:00:22.637952
MEAN_MOTION    = 13.87918965
ECCENTRICITY   = .0050003
INCLINATION    = 81.9349
RA_OF_ASC_NODE = 346.2081
ARG_OF_PERICENTER = 306.0291
MEAN_ANOMALY   = 207.5799

EPHEMERIS_TYPE = 0
CLASSIFICATION_TYPE = U
NORAD_CAT_ID   = 82303
ELEMENT_SET_NO = 999
REV_AT_EPOCH   = 51715
BSTAR          = .39129E-1
MEAN_MOTION_DOT = .47249E-3
MEAN_MOTION_DDOT = 0

CCSDS_OMM_VERS = 2.0
CREATION_DATE  = 
ORIGINATOR     = 

OBJECT_NAME    = UNKNOWN
OBJECT_ID      = 
CENTER_NAME    = EARTH
REF_FRAME      = TEME
TIME_SYSTEM    = UTC
MEAN_ELEMENT_THEORY = SGP/SGP4

EPOCH          = 2025-12-27T23:21:56.521440
MEAN_MOTION    = 13.54566003
ECCENTRICITY   = .0109896
INCLINATION    = 99.4332
RA_OF_ASC_NODE = 55.1141
ARG_OF_PERICENTER = 268.4061
MEAN_ANOMALY   = 90.4486

EPHEMERIS_TYPE = 0
CLASSIFICATION_TYPE = U
NORAD_CAT_ID   = 82311
ELEMENT_SET_NO = 999
REV_AT_EPOCH   = 55238
BSTAR          = .12222E-2
MEAN_MOTION_DOT = .826E-5
MEAN_MOTION_DDOT = 0

